      2.10          N: GNSS NAV DATA                        RINEX VERSION / TYPE
fic2rin                                 10/23/2024 00:59:02 PGM / RUN BY / DATE
                                                            END OF HEADER
22 24 10 22 10  0  0.0 -.731879845262D-04 -.318323145621D-11  .000000000000D+00
     .600000000000D+01  .500000000000D+02  .442697011536D-08 -.161264961722D+00
     .250525772572D-05  .139232745860D-01  .896677374840D-05  .515368431854D+04
     .208800000000D+06 -.169500708580D-06 -.261390404668D+01 -.201165676117D-06
     .960535488650D+00  .209218750000D+03 -.110021723290D+01 -.801033366255D-08
    -.242867259253D-09  .100000000000D+01  .233700000000D+04  .000000000000D+00
     .240000000000D+01  .000000000000D+00 -.111758708954D-07  .600000000000D+01
     .201600000000D+06  .400000000000D+01
24 24 10 22 10  0  0.0 -.483885873109D-03  .147792889038D-11  .000000000000D+00
     .600000000000D+01 -.175937500000D+02  .515700052406D-08 -.253110810601D+01
    -.875443220139D-06  .161573427031D-01  .678561627865D-05  .515368908310D+04
     .208800000000D+06  .165775418282D-06  .243309590382D+01 -.100582838058D-06
     .934109583699D+00  .232281250000D+03  .102115325769D+01 -.795033116320D-08
     .107504477993D-09  .100000000000D+01  .233700000000D+04  .000000000000D+00
     .240000000000D+01  .000000000000D+00  .232830643654D-08  .600000000000D+01
     .201600000000D+06  .400000000000D+01
32 24 10 22 10  0  0.0 -.583732966334D-03  .466116034659D-11  .000000000000D+00
     .110000000000D+02 -.455312500000D+02  .458233372974D-08  .586445266199D-01
    -.230036675930D-05  .792660180014D-02  .805407762527D-05  .515373934746D+04
     .208800000000D+06 -.372529029846D-08  .147499612842D+01  .968575477600D-07
     .962680035853D+00  .226718750000D+03 -.213502723024D+01 -.806069290307D-08
     .206794328100D-09  .100000000000D+01  .233700000000D+04  .000000000000D+00
     .240000000000D+01  .000000000000D+00  .931322574615D-09  .110000000000D+02
     .201600000000D+06  .400000000000D+01
27 24 10 22 10  0  0.0 -.346633605659D-04 -.113686837722D-12  .000000000000D+00
     .250000000000D+02  .897500000000D+02  .453804617070D-08 -.579291628976D+00
     .493973493576D-05  .127183671575D-01  .630505383015D-05  .515368600464D+04
     .208800000000D+06  .894069671631D-07 -.166558014820D+01  .201165676117D-06
     .959709242759D+00  .259250000000D+03  .799411679505D+00 -.826748723117D-08
     .542879755978D-10  .100000000000D+01  .233700000000D+04  .000000000000D+00
     .240000000000D+01  .000000000000D+00  .186264514923D-08  .250000000000D+02
     .201600000000D+06  .400000000000D+01
21 24 10 22 10  0  0.0  .992207787931D-04 -.909494701773D-12  .000000000000D+00
     .290000000000D+02  .159375000000D+01  .469376694280D-08 -.831707307719D+00
    -.128522515297D-06  .254629459232D-01  .300444662571D-05  .515364265823D+04
     .208800000000D+06 -.147148966789D-06 -.701683429714D+00 -.383704900742D-06
     .961112820493D+00  .323031250000D+03 -.504096144599D+00 -.854892752572D-08
     .309298597814D-09  .100000000000D+01  .233700000000D+04  .000000000000D+00
     .240000000000D+01  .000000000000D+00 -.102445483208D-07  .290000000000D+02
     .201600000000D+06  .400000000000D+01
25 24 10 22 10  0  0.0  .499431975186D-03 -.113686837722D-12  .000000000000D+00
     .170000000000D+02  .410625000000D+02  .457411910185D-08  .195866966014D+01
     .199116766453D-05  .119271496078D-01  .929459929466D-05  .515371826744D+04
     .208800000000D+06 -.670552253723D-07 -.272309028195D+01 -.322237610817D-06
     .949879765985D+00  .193437500000D+03  .109564995438D+01 -.788389982464D-08
    -.298941023522D-09  .100000000000D+01  .233700000000D+04  .000000000000D+00
     .240000000000D+01  .000000000000D+00  .558793544769D-08  .170000000000D+02
     .201600000000D+06  .400000000000D+01
19 24 10 22 10  0  0.0  .553560443223D-03  .466116034659D-11  .000000000000D+00
     .150000000000D+02  .106656250000D+03  .434268089009D-08  .118470538065D+01
     .551156699657D-05  .998789432924D-02  .541470944881D-05  .515374946976D+04
     .208800000000D+06  .223517417908D-06 -.155199257321D+01  .100582838058D-06
     .965641396052D+00  .277687500000D+03  .266827756641D+01 -.799497587998D-08
     .582167106740D-10  .100000000000D+01  .233700000000D+04  .000000000000D+00
     .240000000000D+01  .000000000000D+00 -.153668224812D-07  .150000000000D+02
     .201600000000D+06  .400000000000D+01
31 24 10 22 10  0  0.0 -.223007053137D-03  .568434188608D-12  .000000000000D+00
     .980000000000D+02 -.915625000000D+01  .482805825086D-08  .178654362010D+01
    -.592321157455D-06  .106745499652D-01  .765547156334D-05  .515357842255D+04
     .208800000000D+06 -.217929482460D-06  .255484270252D+01 -.447034835815D-07
     .954391595521D+00  .235875000000D+03  .755553961638D+00 -.806640742682D-08
    -.137505727665D-09  .100000000000D+01  .233700000000D+04  .000000000000D+00
     .240000000000D+01  .000000000000D+00 -.130385160446D-07  .980000000000D+02
     .201600000000D+06  .400000000000D+01
29 24 10 22 10  0  0.0 -.569494441152D-03  .261479726760D-11  .000000000000D+00
     .850000000000D+02  .109062500000D+03  .419696053454D-08 -.740273172263D+00
     .541284680367D-05  .289627688471D-02  .620447099209D-05  .515376156807D+04
     .208800000000D+06 -.931322574615D-08 -.158085996701D+01 -.428408384323D-07
     .968916909130D+00  .261281250000D+03  .268147242040D+01 -.801247660895D-08
     .110718897601D-09  .100000000000D+01  .233700000000D+04  .000000000000D+00
     .340000000000D+01  .000000000000D+00 -.977888703346D-08  .850000000000D+02
     .201600000000D+06  .400000000000D+01
16 24 10 22 10  0  0.0 -.148347113281D-03  .989075488178D-11  .000000000000D+00
     .820000000000D+02  .441562500000D+02  .436339603867D-08  .339664417278D+00
     .249035656452D-05  .140973067610D-01  .902824103832D-05  .515363812065D+04
     .208800000000D+06 -.169500708580D-06 -.261719664957D+01  .271946191788D-06
     .961190533627D+00  .207156250000D+03  .849356150384D+00 -.800069040373D-08
    -.327156484524D-09  .100000000000D+01  .233700000000D+04  .000000000000D+00
     .240000000000D+01  .000000000000D+00 -.102445483208D-07  .820000000000D+02
     .201600000000D+06  .400000000000D+01
11 24 10 22 10  0  0.0 -.745736062527D-03 -.261479726760D-11  .000000000000D+00
     .213000000000D+03 -.111562500000D+02  .460162024738D-08 -.152220524971D+01
    -.474974513054D-06  .172635971103D-02  .181980431080D-05  .515356505013D+04
     .208800000000D+06 -.130385160446D-07 -.562255002898D+00  .130385160446D-07
     .966229344291D+00  .346968750000D+03 -.244642118866D+01 -.834213319762D-08
     .517878714584D-10  .100000000000D+01  .233700000000D+04  .000000000000D+00
     .240000000000D+01  .000000000000D+00 -.884756445885D-08  .213000000000D+03
     .201600000000D+06  .400000000000D+01
26 24 10 22 10  0  0.0  .494867563248D-04 -.966338120634D-11  .000000000000D+00
     .780000000000D+02  .312812500000D+02  .510699844127D-08  .121045282369D+01
     .177323818207D-05  .940897932742D-02  .884942710400D-05  .515371682549D+04
     .208800000000D+06 -.139698386192D-06 -.278831454303D+01  .596046447754D-07
     .930666402654D+00  .194531250000D+03  .567869900461D+00 -.826212986516D-08
    -.452518849226D-09  .100000000000D+01  .233700000000D+04  .000000000000D+00
     .240000000000D+01  .000000000000D+00  .651925802231D-08  .780000000000D+02
     .201600000000D+06  .400000000000D+01
20 24 10 22 10  0  0.0  .369437970221D-03 -.341060513165D-12  .000000000000D+00
     .630000000000D+02 -.108187500000D+03  .466197990446D-08 -.221889050716D+01
    -.542588531971D-05  .382775068283D-02  .548921525478D-05  .515362744522D+04
     .208800000000D+06  .122934579849D-06  .258734027779D+00 -.260770320892D-07
     .956071667697D+00  .268531250000D+03 -.249834146645D+01 -.822284251440D-08
    -.178578867098D-10  .100000000000D+01  .233700000000D+04  .000000000000D+00
     .240000000000D+01  .000000000000D+00 -.838190317154D-08  .630000000000D+02
     .201600000000D+06  .400000000000D+01
15 24 10 22 10  0  0.0  .218680594116D-03  .443378667114D-11  .000000000000D+00
     .118000000000D+03 -.546562500000D+02  .493841999073D-08 -.164462423293D+01
    -.264681875706D-05  .161808500998D-01  .846572220325D-05  .515371704102D+04
     .208800000000D+06  .275671482086D-06  .132805520180D+01  .324100255966D-06
     .936495848857D+00  .200500000000D+03  .136934478015D+01 -.800033324599D-08
     .278583032673D-09  .100000000000D+01  .233700000000D+04  .000000000000D+00
     .240000000000D+01  .000000000000D+00 -.102445483208D-07  .118000000000D+03
     .201600000000D+06  .400000000000D+01
17 24 10 22 10  0  0.0  .586806330830D-03 -.133013600134D-10  .000000000000D+00
     .910000000000D+02  .945625000000D+02  .443447042778D-08 -.713498577863D+00
     .481680035591D-05  .135295477230D-01  .609643757343D-05  .515356183243D+04
     .208800000000D+06 -.208616256714D-06 -.159625347715D+01  .316649675369D-07
     .966438050035D+00  .272906250000D+03 -.128419686366D+01 -.821712799065D-08
     .186793494985D-09  .100000000000D+01  .233700000000D+04  .000000000000D+00
     .340000000000D+01  .000000000000D+00 -.111758708954D-07  .910000000000D+02
     .201600000000D+06  .400000000000D+01
